0 ARIANE 44LP DEB
1 28040U 91015P   13287.43020968 -.00000049  00000-0  00000+0 0  7635
2 28040 007.8654 039.2291 6434435 284.3753 016.3519 02.76573848118109
0 ARIANE 44LP DEB
1 28040U 91015P   13295.02115548 -.00000094  00000-0  00000+0 0  7649
2 28040 007.8618 036.0362 6433456 290.6812 014.3917 02.76574923118320
